BATSU-CS1 (IRAZU)       
1 43468U 98067NR  20059.18212366  .00815313  39769-3  70502-3 0  9995
2 43468  51.6235  92.8917 0006621  47.2315 312.9256 16.12655227203181
CUBERRT                 
1 43546U 98067NU  20059.43959033  .00008771  00000-0  76996-4 0  9998
2 43546  51.6350 124.3308 0004196  27.7872 332.3349 15.69734428 92948
TEMPEST-D               
1 43547U 98067NV  20059.73815158  .00005427  00000-0  69852-4 0  9999
2 43547  51.6374 145.1511 0005356   5.9303 354.1753 15.60840076 92374
RAINCUBE                
1 43548U 98067NW  20059.89281520  .00016726  00000-0  14758-3 0  9995
2 43548  51.6339 130.3366 0005271  23.9166 336.2075 15.68830108 93038
HALOSAT                 
1 43549U 98067NX  20059.60053954  .00013242  00000-0  11998-3 0  9996
2 43549  51.6360 132.1836 0004952  23.3051 336.8170 15.68408391 92549
ENDUROSAT ONE           
1 43551U 98067NZ  20059.53879752  .00028299  00000-0  21020-3 0  9998
2 43551  51.6331 125.7173 0005536  31.7609 328.3722 15.72598666 93037
EQUISAT                 
1 43552U 98067PA  20059.48186783  .00016913  00000-0  14837-3 0  9996
2 43552  51.6361 131.4313 0005772  29.6285 330.5038 15.68959537 92913
AEROCUBE 12A            
1 43556U 18046C   20059.74318616  .00001082  00000-0  49791-4 0  9999
2 43556  51.6413 272.5721 0007605 261.4624  98.5494 15.29439358 90584
AEROCUBE 12B            
1 43557U 18046D   20059.85079195  .00001165  00000-0  52979-4 0  9992
2 43557  51.6420 272.5320 0007727 262.4277  97.5825 15.29216067 90541
UITMSAT-1               
1 43589U 98067PD  20059.45654232  .00020809  00000-0  17171-3 0  9995
2 43589  51.6326 131.1251 0005195  35.6010 324.5333 15.70287628 88659
MAYA-1                  
1 43590U 98067PE  20059.57692460  .00021036  00000-0  17347-3 0  9993
2 43590  51.6330 130.4379 0005320  36.5493 323.5867 15.70294381 88604
BHUTAN-1                
1 43591U 98067PF  20059.55707767  .00022369  00000-0  18348-3 0  9991
2 43591  51.6342 130.3558 0005426  37.0226 323.1145 15.70378752 88603
SIRIUSSAT-1             
1 43595U 98067PG  20059.78530755  .00019902  00000-0  17513-3 0  9993
2 43595  51.6333 132.5918 0003528   7.4320 352.6729 15.68761064 87779
SIRIUSSAT-2             
1 43596U 98067PH  20059.58511898  .00018898  00000-0  16719-3 0  9999
2 43596  51.6341 134.3195 0003975   4.1847 355.9182 15.68667282 87732
TANUSHA-3               
1 43597U 98067PJ  20059.89366504  .00031685  00000-0  22379-3 0  9994
2 43597  51.6311 125.7301 0004095  19.6989 340.4168 15.73726344 87874
SURFSAT                 
1 43614U 18070B   20059.90230500  .00002165  00000-0  56670-4 0  9991
2 43614  93.0287 109.3027 0017373  48.0641 312.2090 15.38660009 81638
CP7 (DAVE)              
1 43615U 18070C   20059.66422431  .00002081  00000-0  54682-4 0  9999
2 43615  93.0290 109.2000 0017538  48.3262 311.9489 15.38541358 81596
ELFIN-B                 
1 43616U 18070D   20059.85718051  .00003149  00000-0  79691-4 0  9990
2 43616  93.0249 109.1951 0018075  50.0907 310.1933 15.39650380 81657
ELFIN-A                 
1 43617U 18070E   20059.90198279  .00003306  00000-0  83335-4 0  9996
2 43617  93.0303 109.6341 0017275  47.2603 313.0102 15.39786529 81665
CUBEBEL-1 (BSUSAT-1)    
1 43666U 18083E   20059.89584698  .00000729  00000-0  39076-4 0  9995
2 43666  97.4994  87.3887 0015707  28.0279  93.6230 15.18041230 73994
DEBRISSAT-2             
1 43680U 98067PR  20059.55527572  .00061974  00000-0  33458-3 0  9998
2 43680  51.6339 122.7447 0004280  25.2942 334.8268 15.79521812 96612
CICERO 10               
1 43690U 18088A   20059.69323867  .00000822  00000-0  36173-4 0  9993
2 43690  85.0409 150.6389 0014688   1.8694 358.2599 15.20056642 72064
IRVINE01                
1 43693U 18088D   20059.74010614  .00001945  00000-0  82213-4 0  9998
2 43693  85.0380 149.6143 0016734 341.9515  18.1131 15.22395389 72155
PROXIMA I               
1 43694U 18088E   20059.67874225  .00000827  00000-0  34536-4 0  9990
2 43694  85.0352 149.4558 0017997 333.2926  26.7387 15.21787321 72153
PROXIMA II              
1 43696U 18088G   20059.74291268  .00000790  00000-0  32915-4 0  9998
2 43696  85.0352 149.4158 0018039 332.9650  27.0650 15.21790858 72155
FACSAT-1                
1 43721U 18096C   20059.91261792  .00001246  00000-0  49735-4 0  9999
2 43721  97.4311 134.0484 0018702 145.6234 214.6219 15.26917990 69673
CENTAURI-2              
1 43722U 18096D   20059.71068290  .00001663  00000-0  64627-4 0  9996
2 43722  97.4319 134.0276 0018727 146.5868 213.6557 15.27346393 69646
INNOSAT-2               
1 43738U 18096V   20059.78585880  .00002252  00000-0  80138-4 0  9999
2 43738  97.4331 135.6323 0024516 155.4211 204.8204 15.29769981 69769
SIRION PATHFINDER-2     
1 43759U 18099B   20059.82985766  .00000198  00000-0  23243-4 0  9998
2 43759  97.7167 133.3055 0014191 183.1250 176.9884 14.95234067 67549
CORVUS-BC 4             
1 43767U 18099K   20059.73028380  .00000112  00000-0  15570-4 0  9997
2 43767  97.7148 132.7362 0011694 186.4791 173.6280 14.94671251 67512
MOVE-II                 
1 43780U 18099Y   20059.64897882 -.00000054  00000-0  35017-6 0  9999
2 43780  97.7169 133.0343 0013342 195.5574 164.5239 14.95290374 67501
SPACEBEE-7              
1 43816U 18099BL  20059.67736034  .00000724  00000-0  70303-4 0  9991
2 43816  97.7181 133.3850 0013675 179.3899 180.7341 14.95599548 67082
SPACEBEE-5              
1 43817U 18099BM  20059.87180671  .00001033  00000-0  96923-4 0  9994
2 43817  97.7220 133.8648 0013722 179.5684 180.5551 14.96084651 67125
SPACEBEE-6              
1 43818U 18099BN  20059.72041236  .00000104  00000-0  14515-4 0  9997
2 43818  97.7193 133.5182 0013556 179.9879 180.1345 14.95753718 67246
SHIELDS 1               
1 43850U 18104B   20059.55438677  .00000042  00000-0  00000-0 0  9991
2 43850  85.0255 247.9803 0016935 109.1270 251.1806 15.21287772 66764
STF-1                   
1 43852U 18104D   20059.55558329  .00000042  00000-0  00000-0 0  9990
2 43852  85.0305 248.4434 0016162 122.7617 237.5254 15.21048573 66743
ZACUBE-2                
1 43907U 18111AH  20059.90565554  .00000524  00000-0  24068-4 0  9995
2 43907  97.2756 322.9110 0021865 166.1765 194.0076 15.24466226 65324
LUME 1                  
1 43908U 18111AJ  20059.79288715  .00000873  00000-0  37804-4 0  9993
2 43908  97.2755 322.9064 0021667 166.3371 193.8458 15.24812979 65317
AOBA VELOX-IV           
1 43940U 19003J   20059.87378525  .00001469  00000-0  62018-4 0  9995
2 43940  97.2437 114.8499 0022334 248.7908 229.8307 15.24608110 61952
CATSAT-2                
1 44029U 98067PV  20059.76509462  .00013109  00000-0  15418-3 0  9990
2 44029  51.6384 150.6223 0004501  27.1637 332.9592 15.61785779 61368
DELPHINI                
1 44030U 98067PW  20059.51882914  .00013733  00000-0  15747-3 0  9999
2 44030  51.6353 151.1610 0004629  23.2038 336.9164 15.62399574 61303
UNITE                   
1 44031U 98067PX  20059.66100239  .00008052  00000-0  10674-3 0  9991
2 44031  51.6373 154.3971 0003527  23.4314 336.6838 15.59265848 61279
TECHEDSAT 8             
1 44032U 98067PY  20059.58383639  .00106907  00000-0  52570-3 0  9999
2 44032  51.6284 133.4770 0006045  15.9628 344.1564 15.81333473 61521
CATSAT-1                
1 44033U 98067PZ  20059.82890012  .00012847  00000-0  15124-3 0  9998
2 44033  51.6382 150.3024 0004410  26.7041 333.4179 15.61784477 61282
RAAVANA-1               
1 44329U 98067QE  20059.55739583  .00008487  00000-0  12770-3 0  9990
2 44329  51.6396 164.2395 0006381 315.7922  44.2559 15.55723106 39883
UGUISU                  
1 44330U 98067QF  20059.69342104  .00008746  00000-0  13165-3 0  9993
2 44330  51.6394 163.6455 0006350 315.1565  44.8912 15.55665883 39882
NEPALISAT-1             
1 44331U 98067QG  20059.55184011  .00008292  00000-0  12479-3 0  9993
2 44331  51.6394 164.2023 0006432 316.8852  43.1635 15.55753933 39876
SPOOQY-1                
1 44332U 98067QH  20059.80719543  .00008101  00000-0  12226-3 0  9995
2 44332  51.6395 162.9045 0005318 321.1118  38.9490 15.55716968 39871
SPACEBEE-9              
1 44370U 19037F   20059.90913488  .00006129  00000-0  14942-3 0  9997
2 44370  45.0133   7.5126 0013985 265.0008  94.9282 15.41770715 37680
SPACEBEE-8              
1 44371U 19037G   20059.90474556  .00011426  00000-0  24795-3 0  9999
2 44371  45.0181   4.9630 0011435 270.0065  89.9372 15.44489711 37705
IOD-1 GEMS              
1 44385U 98067QK  20059.66164632  .00013143  00000-0  18603-3 0  9997
2 44385  51.6401 163.4661 0002789 285.9272  74.1412 15.56852055 37372
MOVE-IIB                
1 44398U 19038N   20059.90801736  .00001016  00000-0  62414-4 0  9998
2 44398  97.5232  22.6444 0026258 141.7602 218.5497 15.12072954 36027
SONATE                  
1 44400U 19038Q   20059.85436446  .00000417  00000-0  28022-4 0  9999
2 44400  97.5261  22.6104 0026270 140.4525 219.8628 15.11842621 36014
LUCKY-7                 
1 44406U 19038W   20059.55736633  .00000504  00000-0  32882-4 0  9999
2 44406  97.5256  22.3859 0025701 141.2610 219.0469 15.12077012 35963
BEESAT 9                
1 44412U 19038AC  20059.42773197  .00000721  00000-0  45382-4 0  9998
2 44412  97.5249  22.2410 0023631 147.0103 213.2608 15.12108034 35640
JAISAT-1                
1 44419U 19038F   20059.81388534  .00000634  00000-0  39908-4 0  9995
2 44419  97.5251  22.8028 0022535 145.0416 215.2300 15.12590657 36028
SWIATOWID               
1 44426U 98067QL  20059.74768020  .00013400  00000-0  18713-3 0  9991
2 44426  51.6438 162.9426 0003395 276.1372 246.0321 15.57196506 37392
KRAKSAT                 
1 44427U 98067QM  20059.70909614  .00006307  00000-0  10160-3 0  9990
2 44427  51.6410 165.2755 0003281 270.9323  89.1292 15.54356867 37406
VCC A                   
1 44428U 98067QN  20059.70172787  .00008575  00000-0  13146-3 0  9990
2 44428  51.6410 164.4802 0002706 295.9803  64.0909 15.55199905 37419
